ORBCOMM FM24            
1 25478U 98053D   25022.46266120  .00002658  00000+0  92803-3 0  9994
2 25478  45.0060 239.7224 0001684 190.3344 169.7470 14.37409193376477
ORBCOMM FM25            
1 25479U 98053E   25022.01471349  .00002634  00000+0  92030-3 0  9993
2 25479  45.0053 240.0996 0003728 221.0752 138.9815 14.37394582376709
ORBCOMM FM26            
1 25480U 98053F   25022.00440391  .00002094  00000+0  75387-3 0  9993
2 25480  45.0049 235.6036 0005431 247.3258 112.7016 14.36556430376621
ORBCOMM FM27            
1 25481U 98053G   25022.00425075  .00002776  00000+0  96743-3 0  9992
2 25481  45.0036 240.3932 0000653 122.9801 237.1110 14.37400679376631
ORBCOMM FM28            
1 25482U 98053H   25022.48176955  .00003032  00000+0  10463-2 0  9995
2 25482  45.0036 175.8808 0004307 266.0851  93.9505 14.37670105377383
ORBCOMM FM30            
1 25980U 99065A   25022.42778447  .00002627  00000+0  93057-3 0  9990
2 25980  45.0316  59.3702 0006830 337.8833  22.1720 14.36713089313488
ORBCOMM FM32            
1 25982U 99065C   25022.48457625  .00002494  00000+0  90379-3 0  9996
2 25982  45.0154  68.2364 0005184 357.2748   2.8071 14.35717676313653
